CCSDS_OMM_VERS = 2.0
CREATION_DATE  = 
ORIGINATOR     = 

OBJECT_NAME    = STARLINK-35902
OBJECT_ID      = 2025-271K
CENTER_NAME    = EARTH
REF_FRAME      = TEME
TIME_SYSTEM    = UTC
MEAN_ELEMENT_THEORY = SGP/SGP4

EPOCH          = 2025-12-28T00:23:05.690976
MEAN_MOTION    = 15.39589579
ECCENTRICITY   = .00014426
INCLINATION    = 53.1596
RA_OF_ASC_NODE = 114.9486
ARG_OF_PERICENTER = 59.5649
MEAN_ANOMALY   = 300.5498

EPHEMERIS_TYPE = 0
CLASSIFICATION_TYPE = U
NORAD_CAT_ID   = 66626
ELEMENT_SET_NO = 999
REV_AT_EPOCH   = 656
BSTAR          = .12506249E-2
MEAN_MOTION_DOT = .49902E-3
MEAN_MOTION_DDOT = 0

CCSDS_OMM_VERS = 2.0
CREATION_DATE  = 
ORIGINATOR     = 

OBJECT_NAME    = STARLINK-35904
OBJECT_ID      = 2025-271L
CENTER_NAME    = EARTH
REF_FRAME      = TEME
TIME_SYSTEM    = UTC
MEAN_ELEMENT_THEORY = SGP/SGP4

EPOCH          = 2025-12-28T11:04:02.685216
MEAN_MOTION    = 15.39673740
ECCENTRICITY   = .0001467
INCLINATION    = 53.1597
RA_OF_ASC_NODE = 112.7483
ARG_OF_PERICENTER = 60.4634
MEAN_ANOMALY   = 299.6517

EPHEMERIS_TYPE = 0
CLASSIFICATION_TYPE = U
NORAD_CAT_ID   = 66627
ELEMENT_SET_NO = 999
REV_AT_EPOCH   = 659
BSTAR          = .16834E-2
MEAN_MOTION_DOT = .67656E-3
MEAN_MOTION_DDOT = 0

CCSDS_OMM_VERS = 2.0
CREATION_DATE  = 
ORIGINATOR     = 

OBJECT_NAME    = STARLINK-35862
OBJECT_ID      = 2025-271M
CENTER_NAME    = EARTH
REF_FRAME      = TEME
TIME_SYSTEM    = UTC
MEAN_ELEMENT_THEORY = SGP/SGP4

EPOCH          = 2025-12-28T12:03:36.565056
MEAN_MOTION    = 15.39606749
ECCENTRICITY   = .0001118
INCLINATION    = 53.1612
RA_OF_ASC_NODE = 112.2950
ARG_OF_PERICENTER = 59.8455
MEAN_ANOMALY   = 300.2660

EPHEMERIS_TYPE = 0
CLASSIFICATION_TYPE = U
NORAD_CAT_ID   = 66628
ELEMENT_SET_NO = 999
REV_AT_EPOCH   = 664
BSTAR          = .15786E-2
MEAN_MOTION_DOT = .63242E-3
MEAN_MOTION_DDOT = 0

CCSDS_OMM_VERS = 2.0
CREATION_DATE  = 
ORIGINATOR     = 

OBJECT_NAME    = STARLINK-35956
OBJECT_ID      = 2025-271N
CENTER_NAME    = EARTH
REF_FRAME      = TEME
TIME_SYSTEM    = UTC
MEAN_ELEMENT_THEORY = SGP/SGP4

EPOCH          = 2025-12-28T11:47:23.397792
MEAN_MOTION    = 15.58917880
ECCENTRICITY   = .0011371
INCLINATION    = 53.1707
RA_OF_ASC_NODE = 111.5291
ARG_OF_PERICENTER = 27.5303
MEAN_ANOMALY   = 332.6311

EPHEMERIS_TYPE = 0
CLASSIFICATION_TYPE = U
NORAD_CAT_ID   = 66629
ELEMENT_SET_NO = 999
REV_AT_EPOCH   = 151
BSTAR          = .79692E-2
MEAN_MOTION_DOT = .68654E-2
MEAN_MOTION_DDOT = 0

CCSDS_OMM_VERS = 2.0
CREATION_DATE  = 
ORIGINATOR     = 

OBJECT_NAME    = STARLINK-35949
OBJECT_ID      = 2025-271P
CENTER_NAME    = EARTH
REF_FRAME      = TEME
TIME_SYSTEM    = UTC
MEAN_ELEMENT_THEORY = SGP/SGP4

EPOCH          = 2025-12-28T11:57:23.945184
MEAN_MOTION    = 15.39633394
ECCENTRICITY   = .0000572
INCLINATION    = 53.1611
RA_OF_ASC_NODE = 112.2659
ARG_OF_PERICENTER = 39.3193
MEAN_ANOMALY   = 320.7853

EPHEMERIS_TYPE = 0
CLASSIFICATION_TYPE = U
NORAD_CAT_ID   = 66630
ELEMENT_SET_NO = 999
REV_AT_EPOCH   = 664
BSTAR          = .17458E-2
MEAN_MOTION_DOT = .70108E-3
MEAN_MOTION_DDOT = 0

CCSDS_OMM_VERS = 2.0
CREATION_DATE  = 
ORIGINATOR     = 

OBJECT_NAME    = STARLINK-35965
OBJECT_ID      = 2025-271Q
CENTER_NAME    = EARTH
REF_FRAME      = TEME
TIME_SYSTEM    = UTC
MEAN_ELEMENT_THEORY = SGP/SGP4

EPOCH          = 2025-12-28T11:56:55.834080
MEAN_MOTION    = 15.39634200
ECCENTRICITY   = .0002195
INCLINATION    = 53.1617
RA_OF_ASC_NODE = 112.2644
ARG_OF_PERICENTER = 12.7978
MEAN_ANOMALY   = 347.3082

EPHEMERIS_TYPE = 0
CLASSIFICATION_TYPE = U
NORAD_CAT_ID   = 66631
ELEMENT_SET_NO = 999
REV_AT_EPOCH   = 664
BSTAR          = .17542E-2
MEAN_MOTION_DOT = .70452E-3
MEAN_MOTION_DDOT = 0

CCSDS_OMM_VERS = 2.0
CREATION_DATE  = 
ORIGINATOR     = 

OBJECT_NAME    = STARLINK-35973
OBJECT_ID      = 2025-271R
CENTER_NAME    = EARTH
REF_FRAME      = TEME
TIME_SYSTEM    = UTC
MEAN_ELEMENT_THEORY = SGP/SGP4

EPOCH          = 2025-12-28T11:30:47.102112
MEAN_MOTION    = 15.39685726
ECCENTRICITY   = .0000994
INCLINATION    = 53.1602
RA_OF_ASC_NODE = 112.8595
ARG_OF_PERICENTER = 106.5710
MEAN_ANOMALY   = 253.5404

EPHEMERIS_TYPE = 0
CLASSIFICATION_TYPE = U
NORAD_CAT_ID   = 66632
ELEMENT_SET_NO = 999
REV_AT_EPOCH   = 659
BSTAR          = .19958E-2
MEAN_MOTION_DOT = .80452E-3
MEAN_MOTION_DDOT = 0

CCSDS_OMM_VERS = 2.0
CREATION_DATE  = 
ORIGINATOR     = 

OBJECT_NAME    = STARLINK-35948
OBJECT_ID      = 2025-271S
CENTER_NAME    = EARTH
REF_FRAME      = TEME
TIME_SYSTEM    = UTC
MEAN_ELEMENT_THEORY = SGP/SGP4

EPOCH          = 2025-12-28T11:30:19.433376
MEAN_MOTION    = 15.39590748
ECCENTRICITY   = .0001332
INCLINATION    = 53.1598
RA_OF_ASC_NODE = 112.8635
ARG_OF_PERICENTER = 43.8113
MEAN_ANOMALY   = 316.2998

EPHEMERIS_TYPE = 0
CLASSIFICATION_TYPE = U
NORAD_CAT_ID   = 66633
ELEMENT_SET_NO = 999
REV_AT_EPOCH   = 663
BSTAR          = .18597E-2
MEAN_MOTION_DOT = .74648E-3
MEAN_MOTION_DDOT = 0

CCSDS_OMM_VERS = 2.0
CREATION_DATE  = 
ORIGINATOR     = 

OBJECT_NAME    = STARLINK-35967
OBJECT_ID      = 2025-271T
CENTER_NAME    = EARTH
REF_FRAME      = TEME
TIME_SYSTEM    = UTC
MEAN_ELEMENT_THEORY = SGP/SGP4

EPOCH          = 2025-12-27T15:08:25.846080
MEAN_MOTION    = 15.39570937
ECCENTRICITY   = .00012429
INCLINATION    = 53.1598
RA_OF_ASC_NODE = 116.8079
ARG_OF_PERICENTER = 103.5599
MEAN_ANOMALY   = 256.5544

EPHEMERIS_TYPE = 0
CLASSIFICATION_TYPE = U
NORAD_CAT_ID   = 66634
ELEMENT_SET_NO = 999
REV_AT_EPOCH   = 646
BSTAR          = .40373939E-3
MEAN_MOTION_DOT = .15757E-3
MEAN_MOTION_DDOT = 0

CCSDS_OMM_VERS = 2.0
CREATION_DATE  = 
ORIGINATOR     = 

OBJECT_NAME    = STARLINK-35955
OBJECT_ID      = 2025-271U
CENTER_NAME    = EARTH
REF_FRAME      = TEME
TIME_SYSTEM    = UTC
MEAN_ELEMENT_THEORY = SGP/SGP4

EPOCH          = 2025-12-28T11:10:15.021696
MEAN_MOTION    = 15.39667668
ECCENTRICITY   = .0002286
INCLINATION    = 53.1602
RA_OF_ASC_NODE = 112.7741
ARG_OF_PERICENTER = 137.1693
MEAN_ANOMALY   = 222.9490

EPHEMERIS_TYPE = 0
CLASSIFICATION_TYPE = U
NORAD_CAT_ID   = 66635
ELEMENT_SET_NO = 999
REV_AT_EPOCH   = 663
BSTAR          = .14198E-2
MEAN_MOTION_DOT = .56909E-3
MEAN_MOTION_DDOT = 0

CCSDS_OMM_VERS = 2.0
CREATION_DATE  = 
ORIGINATOR     = 

OBJECT_NAME    = STARLINK-35968
OBJECT_ID      = 2025-271V
CENTER_NAME    = EARTH
REF_FRAME      = TEME
TIME_SYSTEM    = UTC
MEAN_ELEMENT_THEORY = SGP/SGP4

EPOCH          = 2025-12-28T00:22:36.526656
MEAN_MOTION    = 15.39626980
ECCENTRICITY   = .00022585
INCLINATION    = 53.1598
RA_OF_ASC_NODE = 114.9436
ARG_OF_PERICENTER = 78.5572
MEAN_ANOMALY   = 281.5686

EPHEMERIS_TYPE = 0
CLASSIFICATION_TYPE = U
NORAD_CAT_ID   = 66636
ELEMENT_SET_NO = 999
REV_AT_EPOCH   = 656
BSTAR          = .19720903E-2
MEAN_MOTION_DOT = .79328E-3
MEAN_MOTION_DDOT = 0

CCSDS_OMM_VERS = 2.0
CREATION_DATE  = 
ORIGINATOR     = 

OBJECT_NAME    = STARLINK-35953
OBJECT_ID      = 2025-271W
CENTER_NAME    = EARTH
REF_FRAME      = TEME
TIME_SYSTEM    = UTC
MEAN_ELEMENT_THEORY = SGP/SGP4

EPOCH          = 2025-12-28T11:03:34.065216
MEAN_MOTION    = 15.39660946
ECCENTRICITY   = .0001053
INCLINATION    = 53.1591
RA_OF_ASC_NODE = 112.7442
ARG_OF_PERICENTER = 46.0686
MEAN_ANOMALY   = 314.0405

EPHEMERIS_TYPE = 0
CLASSIFICATION_TYPE = U
NORAD_CAT_ID   = 66637
ELEMENT_SET_NO = 999
REV_AT_EPOCH   = 663
BSTAR          = .12797E-2
MEAN_MOTION_DOT = .51201E-3
MEAN_MOTION_DDOT = 0

