STARLINK-35902          
1 66626U 25271K   25362.01603809  .00049902  00000+0  12506-2 0  9997
2 66626  53.1596 114.9486 0001442  59.5649 300.5498 15.39589579  6566
STARLINK-35904          
1 66627U 25271L   25362.46114219  .00067656  00000+0  16834-2 0  9993
2 66627  53.1597 112.7483 0001467  60.4634 299.6517 15.39673740  6590
STARLINK-35862          
1 66628U 25271M   25362.50250654  .00063242  00000+0  15786-2 0  9995
2 66628  53.1612 112.2950 0001118  59.8455 300.2660 15.39606749  6648
STARLINK-35956          
1 66629U 25271N   25362.49124303  .00686540  00000+0  79692-2 0  9993
2 66629  53.1707 111.5291 0011371  27.5303 332.6311 15.58917880  1515
STARLINK-35949          
1 66630U 25271P   25362.49819381  .00070108  00000+0  17458-2 0  9991
2 66630  53.1611 112.2659 0000572  39.3193 320.7853 15.39633394  6648
STARLINK-35965          
1 66631U 25271Q   25362.49786845  .00070452  00000+0  17542-2 0  9996
2 66631  53.1617 112.2644 0002195  12.7978 347.3082 15.39634200  6644
STARLINK-35973          
1 66632U 25271R   25362.47971183  .00080452  00000+0  19958-2 0  9990
2 66632  53.1602 112.8595 0000994 106.5710 253.5404 15.39685726  6590
STARLINK-35948          
1 66633U 25271S   25362.47939159  .00074648  00000+0  18597-2 0  9996
2 66633  53.1598 112.8635 0001332  43.8113 316.2998 15.39590748  6636
STARLINK-35967          
1 66634U 25271T   25361.63085470  .00015757  00000+0  40374-3 0  9997
2 66634  53.1598 116.8079 0001242 103.5599 256.5544 15.39570937  6467
STARLINK-35955          
1 66635U 25271U   25362.46545164  .00056909  00000+0  14198-2 0  9999
2 66635  53.1602 112.7741 0002286 137.1693 222.9490 15.39667668  6636
STARLINK-35968          
1 66636U 25271V   25362.01570054  .00079328  00000+0  19721-2 0  9994
2 66636  53.1598 114.9436 0002258  78.5572 281.5686 15.39626980  6561
STARLINK-35953          
1 66637U 25271W   25362.46081094  .00051201  00000+0  12797-2 0  9991
2 66637  53.1591 112.7442 0001053  46.0686 314.0405 15.39660946  6635
